STARLINK-2041_new
1 17657C 21012AP  21326.11944439  .00006769  00000-0  45347-3 0  3262
2 17657  53.0541 273.2119 0001795  71.5634 236.3288 15.06398868    19
STARLINK-2041_old
1 27657C 21012AP  21325.14720531  .00005975  00000-0  40040-3 0  3251
2 27657  53.0538 277.5763 0001700  71.8148   0.6893 15.06385333    13
